LANDSAT 9               
1 49260U 21088A   23247.20123805  .00000547  00000+0  13152-3 0  9999
2 49260  98.2238 316.1265 0001486  99.2150 260.9216 14.57096777102893
